[{"OBJECT_NAME":"NIMIQ 2","OBJECT_ID":"2002-062A","EPOCH":"2026-03-28T22:49:24.722112","MEAN_MOTION":1.0027208,"ECCENTRICITY":0.0006437,"INCLINATION":9.2625,"RA_OF_ASC_NODE":57.7311,"ARG_OF_PERICENTER":308.9059,"MEAN_ANOMALY":52.8827,"EPHEMERIS_TYPE":0,"CLASSIFICATION_TYPE":"U","NORAD_CAT_ID":27632,"ELEMENT_SET_NO":999,"REV_AT_EPOCH":4338,"BSTAR":0,"MEAN_MOTION_DOT":-8.2e-7,"MEAN_MOTION_DDOT":0},{"OBJECT_NAME":"ANIK F2","OBJECT_ID":"2004-027A","EPOCH":"2026-03-29T03:18:38.644992","MEAN_MOTION":1.00271553,"ECCENTRICITY":0.0003596,"INCLINATION":3.0788,"RA_OF_ASC_NODE":80.4888,"ARG_OF_PERICENTER":315.2331,"MEAN_ANOMALY":89.3669,"EPHEMERIS_TYPE":0,"CLASSIFICATION_TYPE":"U","NORAD_CAT_ID":28378,"ELEMENT_SET_NO":999,"REV_AT_EPOCH":4046,"BSTAR":0,"MEAN_MOTION_DOT":-6.7e-7,"MEAN_MOTION_DDOT":0},{"OBJECT_NAME":"ANIK F1R","OBJECT_ID":"2005-036A","EPOCH":"2026-03-29T02:07:56.620128","MEAN_MOTION":1.00271989,"ECCENTRICITY":0.0003043,"INCLINATION":4.1087,"RA_OF_ASC_NODE":77.5593,"ARG_OF_PERICENTER":305.4502,"MEAN_ANOMALY":88.1587,"EPHEMERIS_TYPE":0,"CLASSIFICATION_TYPE":"U","NORAD_CAT_ID":28868,"ELEMENT_SET_NO":999,"REV_AT_EPOCH":4565,"BSTAR":0,"MEAN_MOTION_DOT":-9.1e-7,"MEAN_MOTION_DDOT":0},{"OBJECT_NAME":"ANIK F3","OBJECT_ID":"2007-009A","EPOCH":"2026-03-29T05:16:09.957216","MEAN_MOTION":1.00272089,"ECCENTRICITY":0.0002747,"INCLINATION":0.9913,"RA_OF_ASC_NODE":84.7785,"ARG_OF_PERICENTER":281.9741,"MEAN_ANOMALY":140.1872,"EPHEMERIS_TYPE":0,"CLASSIFICATION_TYPE":"U","NORAD_CAT_ID":31102,"ELEMENT_SET_NO":999,"REV_AT_EPOCH":4576,"BSTAR":0,"MEAN_MOTION_DOT":-1.9e-7,"MEAN_MOTION_DDOT":0},{"OBJECT_NAME":"NIMIQ 4","OBJECT_ID":"2008-044A","EPOCH":"2026-03-29T04:05:08.762784","MEAN_MOTION":1.00271258,"ECCENTRICITY":0.0002328,"INCLINATION":0.0179,"RA_OF_ASC_NODE":130.4011,"ARG_OF_PERICENTER":239.2334,"MEAN_ANOMALY":156.2279,"EPHEMERIS_TYPE":0,"CLASSIFICATION_TYPE":"U","NORAD_CAT_ID":33373,"ELEMENT_SET_NO":999,"REV_AT_EPOCH":6418,"BSTAR":0,"MEAN_MOTION_DOT":-2.4e-6,"MEAN_MOTION_DDOT":0},{"OBJECT_NAME":"TELSTAR 11N","OBJECT_ID":"2009-009A","EPOCH":"2026-03-29T04:40:19.286688","MEAN_MOTION":1.0026955,"ECCENTRICITY":0.000265,"INCLINATION":0.0241,"RA_OF_ASC_NODE":172.4431,"ARG_OF_PERICENTER":179.7909,"MEAN_ANOMALY":226.8959,"EPHEMERIS_TYPE":0,"CLASSIFICATION_TYPE":"U","NORAD_CAT_ID":34111,"ELEMENT_SET_NO":999,"REV_AT_EPOCH":4544,"BSTAR":0,"MEAN_MOTION_DOT":0,"MEAN_MOTION_DDOT":0},{"OBJECT_NAME":"TERRESTAR-1","OBJECT_ID":"2009-035A","EPOCH":"2026-03-29T00:31:31.975104","MEAN_MOTION":1.00273521,"ECCENTRICITY":0.0002964,"INCLINATION":5.1169,"RA_OF_ASC_NODE":48.8111,"ARG_OF_PERICENTER":324.0177,"MEAN_ANOMALY":70.4976,"EPHEMERIS_TYPE":0,"CLASSIFICATION_TYPE":"U","NORAD_CAT_ID":35496,"ELEMENT_SET_NO":999,"REV_AT_EPOCH":6133,"BSTAR":0,"MEAN_MOTION_DOT":-7.2e-7,"MEAN_MOTION_DDOT":0},{"OBJECT_NAME":"NIMIQ 5","OBJECT_ID":"2009-050A","EPOCH":"2026-03-29T04:07:53.499936","MEAN_MOTION":1.00271342,"ECCENTRICITY":0.0002818,"INCLINATION":0.0241,"RA_OF_ASC_NODE":103.8758,"ARG_OF_PERICENTER":264.3141,"MEAN_ANOMALY":167.6499,"EPHEMERIS_TYPE":0,"CLASSIFICATION_TYPE":"U","NORAD_CAT_ID":35873,"ELEMENT_SET_NO":999,"REV_AT_EPOCH":6054,"BSTAR":0,"MEAN_MOTION_DOT":-2.76e-6,"MEAN_MOTION_DDOT":0},{"OBJECT_NAME":"SKYTERRA 1","OBJECT_ID":"2010-061A","EPOCH":"2026-03-29T00:34:16.713120","MEAN_MOTION":1.00271389,"ECCENTRICITY":0.0001934,"INCLINATION":4.9562,"RA_OF_ASC_NODE":50.8943,"ARG_OF_PERICENTER":345.4927,"MEAN_ANOMALY":57.289,"EPHEMERIS_TYPE":0,"CLASSIFICATION_TYPE":"U","NORAD_CAT_ID":37218,"ELEMENT_SET_NO":999,"REV_AT_EPOCH":5639,"BSTAR":0,"MEAN_MOTION_DOT":-1.33e-6,"MEAN_MOTION_DDOT":0},{"OBJECT_NAME":"TELSTAR 14R","OBJECT_ID":"2011-021A","EPOCH":"2026-03-28T23:02:36.046752","MEAN_MOTION":1.00271031,"ECCENTRICITY":0.00024,"INCLINATION":0.0226,"RA_OF_ASC_NODE":254.5281,"ARG_OF_PERICENTER":105.565,"MEAN_ANOMALY":108.9215,"EPHEMERIS_TYPE":0,"CLASSIFICATION_TYPE":"U","NORAD_CAT_ID":37602,"ELEMENT_SET_NO":999,"REV_AT_EPOCH":5503,"BSTAR":0,"MEAN_MOTION_DOT":-2.99e-6,"MEAN_MOTION_DDOT":0},{"OBJECT_NAME":"NIMIQ 6","OBJECT_ID":"2012-026A","EPOCH":"2026-03-29T04:02:39.002208","MEAN_MOTION":1.00272287,"ECCENTRICITY":0.0002561,"INCLINATION":0.0258,"RA_OF_ASC_NODE":85.8535,"ARG_OF_PERICENTER":272.5834,"MEAN_ANOMALY":157.683,"EPHEMERIS_TYPE":0,"CLASSIFICATION_TYPE":"U","NORAD_CAT_ID":38342,"ELEMENT_SET_NO":999,"REV_AT_EPOCH":4961,"BSTAR":0,"MEAN_MOTION_DOT":-1.93e-6,"MEAN_MOTION_DDOT":0},{"OBJECT_NAME":"ANIK G1","OBJECT_ID":"2013-014A","EPOCH":"2026-03-29T03:58:01.945920","MEAN_MOTION":1.00271383,"ECCENTRICITY":0.000258,"INCLINATION":0.0197,"RA_OF_ASC_NODE":112.3485,"ARG_OF_PERICENTER":232.4618,"MEAN_ANOMALY":153.9572,"EPHEMERIS_TYPE":0,"CLASSIFICATION_TYPE":"U","NORAD_CAT_ID":39127,"ELEMENT_SET_NO":999,"REV_AT_EPOCH":4745,"BSTAR":0,"MEAN_MOTION_DOT":-9.3e-7,"MEAN_MOTION_DDOT":0},{"OBJECT_NAME":"TELSTAR 12V","OBJECT_ID":"2015-068A","EPOCH":"2026-03-29T04:24:14.432832","MEAN_MOTION":1.00271585,"ECCENTRICITY":0.0002541,"INCLINATION":0.0179,"RA_OF_ASC_NODE":148.8882,"ARG_OF_PERICENTER":216.7318,"MEAN_ANOMALY":232.0176,"EPHEMERIS_TYPE":0,"CLASSIFICATION_TYPE":"U","NORAD_CAT_ID":41036,"ELEMENT_SET_NO":999,"REV_AT_EPOCH":3782,"BSTAR":0,"MEAN_MOTION_DOT":-1.38e-6,"MEAN_MOTION_DDOT":0},{"OBJECT_NAME":"VIASAT-2","OBJECT_ID":"2017-029A","EPOCH":"2026-03-28T23:00:28.751040","MEAN_MOTION":1.00271986,"ECCENTRICITY":4.35e-5,"INCLINATION":0.0186,"RA_OF_ASC_NODE":251.9063,"ARG_OF_PERICENTER":96.9919,"MEAN_ANOMALY":112.6667,"EPHEMERIS_TYPE":0,"CLASSIFICATION_TYPE":"U","NORAD_CAT_ID":42740,"ELEMENT_SET_NO":999,"REV_AT_EPOCH":3240,"BSTAR":0,"MEAN_MOTION_DOT":-2.85e-6,"MEAN_MOTION_DDOT":0},{"OBJECT_NAME":"LEO 1 (LEO VANTAGE 1)","OBJECT_ID":"2018-004C","EPOCH":"2026-03-29T05:00:29.706624","MEAN_MOTION":14.67386003,"ECCENTRICITY":0.0351207,"INCLINATION":99.2462,"RA_OF_ASC_NODE":356.067,"ARG_OF_PERICENTER":325.0621,"MEAN_ANOMALY":32.7974,"EPHEMERIS_TYPE":0,"CLASSIFICATION_TYPE":"U","NORAD_CAT_ID":43113,"ELEMENT_SET_NO":999,"REV_AT_EPOCH":42575,"BSTAR":0.00043409,"MEAN_MOTION_DOT":6.24e-5,"MEAN_MOTION_DDOT":0},{"OBJECT_NAME":"TELSTAR 19V","OBJECT_ID":"2018-059A","EPOCH":"2026-03-29T02:55:38.525952","MEAN_MOTION":1.00271693,"ECCENTRICITY":9.32e-5,"INCLINATION":0.0185,"RA_OF_ASC_NODE":183.0832,"ARG_OF_PERICENTER":251.5816,"MEAN_ANOMALY":92.7622,"EPHEMERIS_TYPE":0,"CLASSIFICATION_TYPE":"U","NORAD_CAT_ID":43562,"ELEMENT_SET_NO":999,"REV_AT_EPOCH":2834,"BSTAR":0,"MEAN_MOTION_DOT":-2.99e-6,"MEAN_MOTION_DDOT":0},{"OBJECT_NAME":"TELSTAR 18V","OBJECT_ID":"2018-069A","EPOCH":"2026-03-28T23:59:50.015616","MEAN_MOTION":1.00271136,"ECCENTRICITY":0.0002093,"INCLINATION":0.0161,"RA_OF_ASC_NODE":245.5226,"ARG_OF_PERICENTER":112.5391,"MEAN_ANOMALY":326.2874,"EPHEMERIS_TYPE":0,"CLASSIFICATION_TYPE":"U","NORAD_CAT_ID":43611,"ELEMENT_SET_NO":999,"REV_AT_EPOCH":2783,"BSTAR":0,"MEAN_MOTION_DOT":-3.13e-6,"MEAN_MOTION_DDOT":0}]
