NIMIQ 2                 
1 27632U 02062A   26087.95098058 -.00000082  00000+0  00000+0 0  9996
2 27632   9.2625  57.7311 0006437 308.9059  52.8827  1.00272080 43384
ANIK F2                 
1 28378U 04027A   26088.13794728 -.00000067  00000+0  00000+0 0  9998
2 28378   3.0788  80.4888 0003596 315.2331  89.3669  1.00271553 40462
ANIK F1R                
1 28868U 05036A   26088.08884977 -.00000091  00000+0  00000+0 0  9990
2 28868   4.1087  77.5593 0003043 305.4502  88.1587  1.00271989 45653
ANIK F3                 
1 31102U 07009A   26088.21955969 -.00000019  00000+0  00000+0 0  9992
2 31102   0.9913  84.7785 0002747 281.9741 140.1872  1.00272089 45766
NIMIQ 4                 
1 33373U 08044A   26088.17024031 -.00000240  00000+0  00000+0 0  9992
2 33373   0.0179 130.4011 0002328 239.2334 156.2279  1.00271258 64186
TELSTAR 11N             
1 34111U 09009A   26088.19466767  .00000000  00000+0  00000+0 0  9996
2 34111   0.0241 172.4431 0002650 179.7909 226.8959  1.00269550 45442
TERRESTAR-1             
1 35496U 09035A   26088.02189786 -.00000072  00000+0  00000+0 0  9997
2 35496   5.1169  48.8111 0002964 324.0177  70.4976  1.00273521 61336
NIMIQ 5                 
1 35873U 09050A   26088.17214699 -.00000276  00000+0  00000+0 0  9997
2 35873   0.0241 103.8758 0002818 264.3141 167.6499  1.00271342 60544
SKYTERRA 1              
1 37218U 10061A   26088.02380455 -.00000133  00000+0  00000+0 0  9996
2 37218   4.9562  50.8943 0001934 345.4927  57.2890  1.00271389 56394
TELSTAR 14R             
1 37602U 11021A   26087.96013943 -.00000299  00000+0  00000+0 0  9990
2 37602   0.0226 254.5281 0002400 105.5650 108.9215  1.00271031 55039
NIMIQ 6                 
1 38342U 12026A   26088.16850697 -.00000193  00000+0  00000+0 0  9999
2 38342   0.0258  85.8535 0002561 272.5834 157.6830  1.00272287 49615
ANIK G1                 
1 39127U 13014A   26088.16530030 -.00000093  00000+0  00000+0 0  9994
2 39127   0.0197 112.3485 0002580 232.4618 153.9572  1.00271383 47453
TELSTAR 12V             
1 41036U 15068A   26088.18350038 -.00000138  00000+0  00000+0 0  9997
2 41036   0.0179 148.8882 0002541 216.7318 232.0176  1.00271585 37822
VIASAT-2                
1 42740U 17029A   26087.95866610 -.00000285  00000+0  00000+0 0  9994
2 42740   0.0186 251.9063 0000435  96.9919 112.6667  1.00271986 32407
LEO 1 (LEO VANTAGE 1)   
1 43113U 18004C   26088.20867716  .00006240  00000+0  43409-3 0  9990
2 43113  99.2462 356.0670 0351207 325.0621  32.7974 14.67386003425753
TELSTAR 19V             
1 43562U 18059A   26088.12197368 -.00000299  00000+0  00000+0 0  9993
2 43562   0.0185 183.0832 0000932 251.5816  92.7622  1.00271693 28347
TELSTAR 18V             
1 43611U 18069A   26087.99988444 -.00000313  00000+0  00000+0 0  9993
2 43611   0.0161 245.5226 0002093 112.5391 326.2874  1.00271136 27830
